SL-14 R/B               
1 20262U 89080C   25249.83970486  .00000410  00000+0  12424-3 0  9994
2 20262  82.5917 291.2471 1229607 244.9859 101.8760 12.50339101637172
DELTA 1 R/B             
1 20323U 89089B   25249.92561192  .00000568  00000+0  14988-3 0  9992
2 20323  97.0906 121.4430 0068906 344.4618  15.4464 14.50456468869096
ARIANE 40 R/B           
1 20443U 90005H   25249.92966205  .00000498  00000+0  17261-3 0  9998
2 20443  98.3387 310.7740 0010842  43.4161 316.7879 14.39691623866363
DELTA 2 R/B(1)          
1 20453U 90008B   25249.43946350  .00037607  00000+0  75830-3 0  9995
2 20453  35.6079 284.8712 0126229  13.8745 346.5407 15.37299191897615
COSMOS 2058             
1 20465U 90010A   25249.93705982  .00006335  00000+0  39441-3 0  9992
2 20465  82.4733 228.1402 0008199 234.9074 125.1386 15.09403937914507
SL-14 R/B               
1 20466U 90010B   25249.94856481  .00000745  00000+0  87844-4 0  9995
2 20466  82.4988  79.9289 0019784 181.2437 178.8732 14.83327469901247
SL-14 R/B               
1 20511U 90018B   25249.92490138  .00000763  00000+0  93296-4 0  9993
2 20511  82.5217  34.8310 0015939 341.5529  18.5105 14.81911445895360
HST                     
1 20580U 90037B   25249.28705432  .00009079  00000+0  33264-3 0  9992
2 20580  28.4674 214.8626 0002080 245.6303 114.4075 15.26209836745088
SL-16 R/B               
1 20625U 90046B   25249.89634571  .00000232  00000+0  14412-3 0  9990
2 20625  71.0006 323.9020 0015830 229.4606 130.5139 14.14974206822390
COSMOS 2084             
1 20663U 90055A   25249.53238481  .00003682  00000+0  27224-3 0  9990
2 20663  62.7886 242.9816 0048012 163.1884 197.0821 15.04127708908600
SL-6 R/B(2)             
1 20666U 90055D   25249.94567059  .00003516  00000+0  27841-3 0  9995
2 20666  62.7847 158.1232 0014593 222.1766 137.8211 15.02376985910577
SL-8 R/B                
1 20775U 90078B   25249.92549729  .00015470  00000+0  50788-3 0  9991
2 20775  82.9049  55.5698 0391897 268.6799  86.9503 14.80625982782022
SL-8 R/B                
1 21088U 91006B   25249.94799749  .00000071  00000+0  56067-4 0  9990
2 21088  82.9427 306.7380 0022395 186.3500 348.1990 13.77470464738773
OKEAN-3                 
1 21397U 91039A   25249.78985369  .00004170  00000+0  30567-3 0  9996
2 21397  82.5197 154.8152 0012887 232.2273 127.7786 15.03229891837397
COSMOS 2151             
1 21422U 91042A   25249.85772748  .00002910  00000+0  23708-3 0  9991
2 21422  82.4933 260.8239 0011392 327.4336  32.6183 14.99120087835646
SL-14 R/B               
1 21423U 91042B   25249.93996871  .00000827  00000+0  10200-3 0  9994
2 21423  82.4937  32.4739 0018319 122.4442 237.8547 14.81610739825861
ERS-1                   
1 21574U 91050A   25249.89886551  .00000556  00000+0  19300-3 0  9997
2 21574  98.7946 258.4980 0032647  29.3465 330.9546 14.39253937789292
ARIANE 40 R/B           
1 21610U 91050F   25249.90111124  .00000563  00000+0  18196-3 0  9997
2 21610  98.2320 303.7505 0001869 269.2456  90.8521 14.42695641792495
INTERCOSMOS 25          
1 21819U 91086A   25249.93723520  .00004590  00000+0  90157-3 0  9990
2 21819  82.5995  61.0451 1489620 152.8815 215.8753 12.11284553474433
SL-8 R/B                
1 21876U 92008B   25249.90093902  .00000030  00000+0  15762-4 0  9994
2 21876  82.9261  44.4527 0033432 288.7269 179.9653 13.75938734684140
SL-8 R/B                
1 21938U 92020B   25249.67057266  .00000048  00000+0  33325-4 0  9998
2 21938  82.9282 290.4262 0030480  91.6826  24.9781 13.75519724675832
USA 81                  
1 21949U 92023A   25249.92713680  .00000312  00000+0  10848-3 0  9998
2 21949  85.0044 237.4030 0001185  94.1714 265.9614 14.32270678 68487
COSMOS 2219             
1 22219U 92076A   25249.88187484  .00000317  00000+0  19122-3 0  9998
2 22219  71.0617  42.2964 0016309 124.2656 236.0014 14.14046162692396
SL-16 R/B               
1 22220U 92076B   25249.66232100 -.00000147  00000+0 -49510-4 0  9990
2 22220  70.9990 216.0118 0012476   4.7087 167.6680 14.16818635695769
COSMOS 2221             
1 22236U 92080A   25249.93106142  .00002945  00000+0  26534-3 0  9994
2 22236  82.5012  94.9353 0016092  89.8444 270.4621 14.95165307753326
SL-16 R/B               
1 22285U 92093B   25249.85332080  .00000343  00000+0  20029-3 0  9998
2 22285  71.0233  30.1749 0006015 242.1443 117.9071 14.15409612687148
COSMOS 2228             
1 22286U 92094A   25249.93070430  .00004503  00000+0  39767-3 0  9998
2 22286  82.5160  53.0978 0017893 196.7200 163.3434 14.96043172748571
SL-16 R/B               
1 22566U 93016B   25249.73405248  .00000273  00000+0  16453-3 0  9998
2 22566  71.0053 241.5322 0012295 247.9745 112.0073 14.15265635676141
COSMOS 2242             
1 22626U 93024A   25249.90423893  .00002973  00000+0  26581-3 0  9991
2 22626  82.5156  82.3432 0016093 198.8011 161.2618 14.95473050752913
SL-16 R/B               
1 22803U 93059B   25249.82209918  .00000171  00000+0  10824-3 0  9998
2 22803  70.9910  38.8543 0015462 135.7153 224.5211 14.17188294653485
ARIANE 40 R/B           
1 22830U 93061H   25249.89567996  .00000401  00000+0  16321-3 0  9995
2 22830  98.5200 317.1303 0011873 107.3635 252.8849 14.32706206667787
COSMOS 2278             
1 23087U 94023A   25249.92430560 -.00000110  00000+0 -32972-4 0  9999
2 23087  71.0525 199.5521 0010841 301.3539  58.6522 14.14314320618828
SL-16 R/B               
1 23088U 94023B   25249.91400853  .00000070  00000+0  60741-4 0  9999
2 23088  70.9977  96.8240 0004922 237.1603 122.9046 14.14975549620090
SL-16 R/B               
1 23343U 94074B   25249.68152444  .00000815  00000+0  11658-3 0  9992
2 23343  97.7340 282.7683 0008095  99.0313  14.6567 14.79127463660049
SL-16 R/B               
1 23405U 94077B   25249.82598706  .00000338  00000+0  19720-3 0  9993
2 23405  70.9851  19.2918 0000529  54.9515 305.1657 14.15529796590214
ARIANE 40+ R/B          
1 23561U 95021B   25249.94207959  .00000495  00000+0  17257-3 0  9993
2 23561  98.4771 318.6460 0006201 341.9493 192.1676 14.39587216592807
SL-16 R/B               
1 23705U 95058B   25249.89451294 -.00000035  00000+0  62982-5 0  9998
2 23705  71.0211 206.1193 0011283  29.9042 330.2723 14.15463550541840
SL-16 R/B               
1 24298U 96051B   25249.95791155 -.00000119  00000+0 -37806-4 0  9990
2 24298  70.7618 204.1176 0013561  38.3827 321.8255 14.12395797495703
ORBVIEW 2 (SEASTAR)     
1 24883U 97037A   25249.88095446  .00000497  00000+0  18982-3 0  9997
2 24883  98.8375  44.5687 0001425 220.6579 139.4499 14.35307259482107
SL-16 R/B               
1 25400U 98043G   25249.82964225  .00000117  00000+0  67696-4 0  9991
2 25400  98.7936 197.1976 0009698 181.6344 178.4806 14.25989635412782
SL-16 R/B               
1 25407U 98045B   25249.92489654  .00000329  00000+0  19032-3 0  9994
2 25407  71.0104 208.0150 0009397 297.7105  62.3065 14.16152267401088
ISS (ZARYA)             
1 25544U 98067A   25249.87397102  .00012937  00000+0  23296-3 0  9995
2 25544  51.6325 262.1963 0004212 309.4705  50.5911 15.50156361527839
CZ-4B R/B               
1 25732U 99025C   25249.90558588  .00000145  00000+0  90755-4 0  9993
2 25732  98.6927 293.2672 0037685 151.9283  21.5858 14.18209612362117
OKEAN-O                 
1 25860U 99039A   25249.90890356  .00001202  00000+0  16609-3 0  9992
2 25860  97.9756 306.3784 0001193 116.0906 244.0428 14.79924921407209
SL-16 R/B               
1 25861U 99039B   25249.86326711  .00001038  00000+0  13943-3 0  9992
2 25861  98.0282 303.9332 0015940 130.5819 229.6783 14.81384263409642
DELTA 2 R/B             
1 25876U 99041E   25249.90372561  .00002770  00000+0  48407-3 0  9997
2 25876  51.7624 314.8597 0505936 166.2366 195.2964 14.11093492337070
HELIOS 1B               
1 25977U 99064A   25249.76994330  .00002672  00000+0  30693-3 0  9991
2 25977  98.1822 141.5826 0000874  39.6956 320.4322 14.86725260657922
TERRA                   
1 25994U 99068A   25249.90583926  .00000801  00000+0  17314-3 0  9992
2 25994  97.9905 305.0629 0003343  63.2111 110.4943 14.60790592368240
SL-16 R/B               
1 26070U 00006B   25249.89277505  .00000211  00000+0  13128-3 0  9997
2 26070  71.0021 124.2885 0014382 102.8854 257.3877 14.15788902322544
TITAN 4B R/B            
1 26474U 00047B   25249.92037082  .00005849  00000+0  38083-3 0  9997
2 26474  67.9900 196.5400 0047820 249.6612 109.9395 15.07707790365195
ENVISAT                 
1 27386U 02009A   25249.90635493  .00000213  00000+0  82877-4 0  9999
2 27386  98.3412 203.1938 0001159  88.5422 339.2076 14.38945619232744
IDEFIX & ARIANE 42P R/B 
1 27422U 02021B   25249.80529626  .00000494  00000+0  20469-3 0  9992
2 27422  98.5629 185.8403 0012261  14.4668 345.6864 14.30844051217723
AQUA                    
1 27424U 02022A   25249.89056569  .00001681  00000+0  34910-3 0  9990
2 27424  98.3860 209.3075 0001827 101.1200 317.5590 14.61462954241889
CZ-4B R/B               
1 27432U 02024C   25249.90208237  .00000100  00000+0  74401-4 0  9999
2 27432  98.9160 298.9294 0050161 183.6437 350.1397 14.14500494203253
MIDORI II (ADEOS-II)    
1 27597U 02056A   25249.81992857  .00000479  00000+0  20683-3 0  9995
2 27597  98.7448 202.3616 0001493 125.1659 234.9662 14.29104253184037
H-2A R/B                
1 27601U 02056E   25249.87535444  .00000635  00000+0  23798-3 0  9996
2 27601  98.2882 212.5766 0070329 350.5337  62.7774 14.33569185187779
CZ-4B R/B               
1 28059U 03049C   25249.89608373  .00000762  00000+0  18682-3 0  9998
2 28059  98.6682 232.8470 0049556  73.0314 287.6305 14.54756406159871
CZ-2C R/B               
1 28222U 04012C   25249.85899294  .00036915  00000+0  70491-3 0  9996
2 28222  97.7584 295.0188 0019943 259.6990 100.2011 15.47820603175708
SL-16 R/B               
1 28353U 04021B   25249.74352955 -.00000167  00000+0 -62025-4 0  9994
2 28353  70.9987 258.5096 0007183 303.5271  56.5165 14.14562423 96823
